NORAD_CAT_ID,OBJECT_NAME,OBJECT_TYPE,EPOCH,MEAN_MOTION,ECCENTRICITY,INCLINATION,RA_OF_ASC_NODE,ARG_OF_PERICENTER,MEAN_ANOMALY,BSTAR,MEAN_MOTION_DOT,MEAN_MOTION_DDOT,TLE_LINE0,TLE_LINE1,TLE_LINE2,SEMIMAJOR_AXIS,PERIOD,APOGEE,PERIGEE,DECAYED
53572.0,STARLINK-4555,PAYLOAD,2024-06-12 08:10:04,15.08854613,0.0001145,53.2169,25.9912,81.2754,278.8368,0.00026011,3.856e-05,0.0,0 STARLINK-4555,1 53572U 22101AX  24164.34033483  .00003856  00000-0  26011-3 0  9998,2 53572  53.2169  25.9912 0001145  81.2754 278.8368 15.08854613100538,6917.836,95.437,540.493,538.909,0.0
53572.0,STARLINK-4555,PAYLOAD,2024-06-12 20:53:10,15.08832103,0.00013,53.2171,23.6139,82.93,277.184,-0.00014583,-2.607e-05,0.0,0 STARLINK-4555,1 53572U 22101AX  24164.87026567 -.00002607  00000-0 -14583-3 0  9997,2 53572  53.2171  23.6139 0001300  82.9300 277.1840 15.08832103100611,6917.905,95.438,540.669,538.87,0.0
53572.0,STARLINK-4555,PAYLOAD,2024-06-13 08:00:52,15.08841373,0.0001132,53.2175,21.531,95.0296,265.0825,9.5336e-05,1.23e-05,0.0,0 STARLINK-4555,1 53572U 22101AX  24165.33394295  .00001230  00000-0  95336-4 0  9990,2 53572  53.2175  21.5310 0001132  95.0296 265.0825 15.08841373100680,6917.876,95.437,540.524,538.958,0.0
53572.0,STARLINK-4555,PAYLOAD,2024-06-13 20:43:57,15.0884192,0.0001644,53.2197,19.1509,87.0318,273.0863,0.00011368,1.522e-05,0.0,0 STARLINK-4555,1 53572U 22101AX  24165.86386559  .00001522  00000-0  11368-3 0  9998,2 53572  53.2197  19.1509 0001644  87.0318 273.0863 15.08841920100769,6917.875,95.437,540.877,538.602,0.0
53572.0,STARLINK-4555,PAYLOAD,2024-06-14 07:51:39,15.08847035,0.0001529,53.2192,17.0681,115.9909,244.1241,0.0002925,4.371e-05,0.0,0 STARLINK-4555,1 53572U 22101AX  24166.32754302  .00004371  00000-0  29250-3 0  9999,2 53572  53.2192  17.0681 0001529 115.9909 244.1241 15.08847035100831,6917.859,95.437,540.782,538.666,0.0
53572.0,STARLINK-4555,PAYLOAD,2024-06-14 20:34:45,15.08841376,0.000148,53.2198,14.6932,88.7755,271.3407,0.00013515,1.864e-05,0.0,0 STARLINK-4555,1 53572U 22101AX  24166.85746651  .00001864  00000-0  13515-3 0  9996,2 53572  53.2198  14.6932 0001480  88.7755 271.3407 15.08841376100918,6917.876,95.437,540.765,538.717,0.0
53572.0,STARLINK-4555,PAYLOAD,2024-06-14 23:45:31,15.08843256,0.0001472,53.2196,14.0983,89.1489,270.9672,0.00015657,2.205e-05,0.0,0 STARLINK-4555,1 53572U 22101AX  24166.98994559  .00002205  00000-0  15657-3 0  9991,2 53572  53.2196  14.0983 0001472  89.1489 270.9672 15.08843256100936,6917.87,95.437,540.754,538.717,0.0
53572.0,STARLINK-4555,PAYLOAD,2024-06-15 20:25:32,15.08842462,0.0001324,53.218,10.2306,91.3888,268.7256,0.00011932,1.612e-05,0.0,0 STARLINK-4555,1 53572U 22101AX  24167.85106611  .00001612  00000-0  11932-3 0  9995,2 53572  53.2180  10.2306 0001324  91.3888 268.7256 15.08842462101066,6917.873,95.437,540.654,538.822,0.0
53572.0,STARLINK-4555,PAYLOAD,2024-06-16 05:57:50,15.08851316,0.0001285,53.219,8.4478,93.8684,266.2455,0.00020138,2.919e-05,0.0,0 STARLINK-4555,1 53572U 22101AX  24168.24850087  .00002919  00000-0  20138-3 0  9991,2 53572  53.2190   8.4478 0001285  93.8684 266.2455 15.08851316101122,6917.846,95.437,540.6,538.822,0.0
53572.0,STARLINK-4555,PAYLOAD,2024-06-16 21:51:42,15.08836859,0.0001205,53.2167,5.4738,88.7054,271.4076,5.1318e-05,5.29e-06,0.0,0 STARLINK-4555,1 53572U 22101AX  24168.91090984  .00000529  00000-0  51318-4 0  9997,2 53572  53.2167   5.4738 0001205  88.7054 271.4076 15.08836859101221,6917.89,95.438,540.589,538.921,0.0
53572.0,STARLINK-4555,PAYLOAD,2024-06-17 20:07:06,15.08836358,0.0001267,53.2179,1.3143,101.9417,258.1718,5.4691e-05,5.83e-06,0.0,0 STARLINK-4555,1 53572U 22101AX  24169.83827124  .00000583  00000-0  54691-4 0  9990,2 53572  53.2179   1.3143 0001267 101.9417 258.1718 15.08836358101362,6917.892,95.438,540.633,538.88,0.0
53572.0,STARLINK-4555,PAYLOAD,2024-06-17 23:17:52,15.08841622,0.0001224,53.2172,0.718,97.507,262.6062,9.9454e-05,1.295e-05,0.0,0 STARLINK-4555,1 53572U 22101AX  24169.97074823  .00001295  00000-0  99454-4 0  9992,2 53572  53.2172   0.7180 0001224  97.5070 262.6062 15.08841622101381,6917.875,95.437,540.587,538.894,0.0
53572.0,STARLINK-4555,PAYLOAD,2024-06-18 05:39:24,15.08850332,0.0001208,53.2179,359.5288,92.5299,267.5832,0.00018306,2.628e-05,0.0,0 STARLINK-4555,1 53572U 22101AX  24170.23570335  .00002628  00000-0  18306-3 0  9999,2 53572  53.2179 359.5288 0001208  92.5299 267.5832 15.08850332101424,6917.849,95.437,540.549,538.878,0.0
53572.0,STARLINK-4555,PAYLOAD,2024-06-18 19:57:53,15.08833194,0.0001209,53.2187,356.8532,94.7986,265.3144,7.6018e-05,9.22e-06,0.0,0 STARLINK-4555,1 53572U 22101AX  24170.83187334  .00000922  00000-0  76018-4 0  9998,2 53572  53.2187 356.8532 0001209  94.7986 265.3144 15.08833194101512,6917.901,95.438,540.603,538.93,0.0
53572.0,STARLINK-4555,PAYLOAD,2024-06-18 21:33:16,15.08842003,0.0001218,53.2187,356.5524,87.8581,272.255,9.5686e-05,1.235e-05,0.0,0 STARLINK-4555,1 53572U 22101AX  24170.89811105  .00001235  00000-0  95686-4 0  9994,2 53572  53.2187 356.5524 0001218  87.8581 272.2550 15.08842003101522,6917.874,95.437,540.582,538.897,0.0
53572.0,STARLINK-4555,PAYLOAD,2024-06-19 11:51:44,15.08846474,0.0002249,53.2175,353.8786,80.121,280.0035,0.00023308,3.424e-05,0.0,0 STARLINK-4555,1 53572U 22101AX  24171.49426899  .00003424  00000-0  23308-3 0  9996,2 53572  53.2175 353.8786 0002249  80.1210 280.0035 15.08846474101610,6917.861,95.437,541.281,538.17,0.0
53572.0,STARLINK-4555,PAYLOAD,2024-06-19 19:48:40,15.08838415,0.0001273,53.2176,352.3914,82.4906,277.6231,3.3601e-05,2.47e-06,0.0,0 STARLINK-4555,1 53572U 22101AX  24171.82547079  .00000247  00000-0  33601-4 0  9995,2 53572  53.2176 352.3914 0001273  82.4906 277.6231 15.08838415101662,6917.885,95.438,540.631,538.87,0.0
53572.0,STARLINK-4555,PAYLOAD,2024-06-20 11:42:31,15.08843444,0.0001258,53.2165,349.4182,97.1099,263.0037,4.7662e-05,4.71e-06,0.0,0 STARLINK-4555,1 53572U 22101AX  24172.48786867  .00000471  00000-0  47662-4 0  9999,2 53572  53.2165 349.4182 0001258  97.1099 263.0037 15.08843444101765,6917.87,95.437,540.605,538.865,0.0
53572.0,STARLINK-4555,PAYLOAD,2024-06-20 18:04:04,15.08841569,0.000115,53.2169,348.2269,109.5249,250.5867,6.7592e-05,7.88e-06,0.0,0 STARLINK-4555,1 53572U 22101AX  24172.75283005  .00000788  00000-0  67592-4 0  9990,2 53572  53.2169 348.2269 0001150 109.5249 250.5867 15.08841569101801,6917.876,95.437,540.536,538.945,0.0
53572.0,STARLINK-4555,PAYLOAD,2024-06-21 11:33:19,15.08838701,0.0001131,53.2162,344.9577,80.454,279.658,0.00018475,2.654e-05,0.0,0 STARLINK-4555,1 53572U 22101AX  24173.48147392  .00002654  00000-0  18475-3 0  9998,2 53572  53.2162 344.9577 0001131  80.4540 279.6580 15.08838701101919,6917.884,95.438,540.532,538.967,0.0
53572.0,STARLINK-4555,PAYLOAD,2024-06-21 14:44:05,15.08836886,0.0001213,53.2168,344.3624,84.0272,276.0858,0.00014802,2.068e-05,0.0,0 STARLINK-4555,1 53572U 22101AX  24173.61395578  .00002068  00000-0  14802-3 0  9993,2 53572  53.2168 344.3624 0001213  84.0272 276.0858 15.08836886101938,6917.89,95.438,540.594,538.916,0.0
53572.0,STARLINK-4555,PAYLOAD,2024-06-21 17:54:51,15.08837637,0.0001235,53.2175,343.767,95.8272,264.2861,8.7966e-05,1.112e-05,0.0,0 STARLINK-4555,1 53572U 22101AX  24173.74643514  .00001112  00000-0  87966-4 0  9994,2 53572  53.2175 343.7670 0001235  95.8272 264.2861 15.08837637101954,6917.888,95.438,540.607,538.898,0.0
53572.0,STARLINK-4555,PAYLOAD,2024-06-22 14:34:52,15.08838609,0.0001163,53.2166,339.901,88.6994,271.4131,0.00015483,2.177e-05,0.0,0 STARLINK-4555,1 53572U 22101AX  24174.60755670  .00002177  00000-0  15483-3 0  9993,2 53572  53.2166 339.9010 0001163  88.6994 271.4131 15.08838609102085,6917.885,95.438,540.554,538.945,0.0
53572.0,STARLINK-4555,PAYLOAD,2024-06-22 20:56:25,15.08842464,0.0001159,53.2178,338.7113,93.2406,266.8718,0.00011201,1.495e-05,0.0,0 STARLINK-4555,1 53572U 22101AX  24174.87251346  .00001495  00000-0  11201-3 0  9999,2 53572  53.2178 338.7113 0001159  93.2406 266.8718 15.08842464102122,6917.873,95.437,540.54,538.936,0.0
53572.0,STARLINK-4555,PAYLOAD,2024-06-23 14:25:39,15.0883829,0.0001182,53.2178,335.4388,96.8432,263.2695,9.2001e-05,1.177e-05,0.0,0 STARLINK-4555,1 53572U 22101AX  24175.60115720  .00001177  00000-0  92001-4 0  9991,2 53572  53.2178 335.4388 0001182  96.8432 263.2695 15.08838290102233,6917.886,95.438,540.568,538.933,0.0
53572.0,STARLINK-4555,PAYLOAD,2024-06-23 17:36:26,15.08839146,0.0001186,53.2178,334.8441,96.1754,263.9373,9.2335e-05,1.182e-05,0.0,0 STARLINK-4555,1 53572U 22101AX  24175.73363663  .00001182  00000-0  92335-4 0  9992,2 53572  53.2178 334.8441 0001186  96.1754 263.9373 15.08839146102253,6917.883,95.438,540.568,538.928,0.0
53572.0,STARLINK-4555,PAYLOAD,2024-06-24 14:16:27,15.08836255,0.0001216,53.2182,330.9778,94.7236,265.3895,5.2661e-05,5.5e-06,0.0,0 STARLINK-4555,1 53572U 22101AX  24176.59476044  .00000550  00000-0  52661-4 0  9991,2 53572  53.2182 330.9778 0001216  94.7236 265.3895 15.08836255102388,6917.892,95.438,540.598,538.916,0.0
53572.0,STARLINK-4555,PAYLOAD,2024-06-24 17:27:13,15.08835835,0.0001204,53.2181,330.3831,93.921,266.192,4.0894e-05,3.63e-06,0.0,0 STARLINK-4555,1 53572U 22101AX  24176.72724099  .00000363  00000-0  40894-4 0  9999,2 53572  53.2181 330.3831 0001204  93.9210 266.1920 15.08835835102405,6917.893,95.438,540.591,538.925,0.0
53572.0,STARLINK-4555,PAYLOAD,2024-06-25 14:07:14,15.0883743,0.0001183,53.2178,326.5178,95.515,264.5977,5.858e-05,6.45e-06,0.0,0 STARLINK-4555,1 53572U 22101AX  24177.58836149  .00000645  00000-0  58580-4 0  9998,2 53572  53.2178 326.5178 0001183  95.5150 264.5977 15.08837430102530,6917.888,95.438,540.572,538.935,0.0
53572.0,STARLINK-4555,PAYLOAD,2024-06-25 17:18:00,15.08841518,0.0001207,53.2178,325.9225,86.893,273.22,9.1231e-05,1.164e-05,0.0,0 STARLINK-4555,1 53572U 22101AX  24177.72083850  .00001164  00000-0  91231-4 0  9994,2 53572  53.2178 325.9225 0001207  86.8930 273.2200 15.08841518102552,6917.876,95.437,540.576,538.906,0.0
